ORBCOMM FM103           
1 40091U 14040F   25269.65869814  .00001322  00000+0  31931-3 0  9991
2 40091  47.0047 258.5429 0001818 351.7450   8.3405 14.58323896578915
ORBCOMM FM114           
1 41179U 15081A   25269.74592491  .00001365  00000+0  32829-3 0  9993
2 41179  47.0024 167.1233 0001503  85.4316 274.6741 14.58362724519299
ORBCOMM FM119           
1 41180U 15081B   25269.87563175  .00001530  00000+0  36411-3 0  9991
2 41180  47.0003  75.8500 0001172 183.8485 176.2392 14.58299170520567
ORBCOMM FM105           
1 41181U 15081C   25269.84617282  .00000568  00000+0  20498-3 0  9996
2 41181  47.0011  90.8359 0001342  48.0389 312.0606 14.45299924515453
ORBCOMM FM110           
1 41182U 15081D   25269.73799285  .00002063  00000+0  47737-3 0  9996
2 41182  47.0013 166.6950 0002879 306.2339  53.8280 14.58384100519160
ORBCOMM FM118           
1 41183U 15081E   25269.90745939  .00001717  00000+0  40371-3 0  9995
2 41183  47.0036 166.1548 0003244 267.7454  92.3060 14.58359038519290
ORBCOMM FM112           
1 41184U 15081F   25269.70779122  .00001962  00000+0  45533-3 0  9992
2 41184  46.9986  75.7025 0001019 109.5037 250.5959 14.58427369520487
ORBCOMM FM113           
1 41185U 15081G   25269.75331063  .00001909  00000+0  44417-3 0  9997
2 41185  47.0007  75.8294 0000906 134.1121 225.9840 14.58413067520479
